NORAD_CAT_ID,OBJECT_NAME,OBJECT_TYPE,EPOCH,MEAN_MOTION,ECCENTRICITY,INCLINATION,RA_OF_ASC_NODE,ARG_OF_PERICENTER,MEAN_ANOMALY,BSTAR,MEAN_MOTION_DOT,MEAN_MOTION_DDOT,TLE_LINE0,TLE_LINE1,TLE_LINE2,SEMIMAJOR_AXIS,PERIOD,APOGEE,PERIGEE,DECAYED
49765.0,STARLINK-3227,PAYLOAD,2024-03-29 16:17:56,15.08842819,0.0001547,53.2175,86.4905,98.761,261.3558,-2.7912e-05,-7.32e-06,0.0,0 STARLINK-3227,1 49765U 21115AT  24089.67912199 -.00000732  00000-0 -27912-4 0  9997,2 49765  53.2175  86.4905 0001547  98.7610 261.3558 15.08842819129600,6917.872,95.437,540.807,538.667,0.0
49765.0,STARLINK-3227,PAYLOAD,2024-03-30 06:36:24,15.08845782,0.000152,53.2181,83.8152,98.6934,261.4231,9.6026e-05,1.241e-05,0.0,0 STARLINK-3227,1 49765U 21115AT  24090.27527906  .00001241  00000-0  96026-4 0  9999,2 49765  53.2181  83.8152 0001520  98.6934 261.4231 15.08845782128588,6917.863,95.437,540.779,538.676,0.0
49765.0,STARLINK-3227,PAYLOAD,2024-03-30 16:08:43,15.08842146,0.0001522,53.2179,82.033,98.7132,261.4033,-3.4116e-06,-3.42e-06,0.0,0 STARLINK-3227,1 49765U 21115AT  24090.67272292 -.00000342  00000-0 -34116-5 0  9994,2 49765  53.2179  82.0330 0001522  98.7132 261.4033 15.08842146128645,6917.874,95.437,540.792,538.686,0.0
49765.0,STARLINK-3227,PAYLOAD,2024-03-31 04:51:48,15.0883982,0.0001501,53.2176,79.6528,95.3177,264.7987,0.00013691,1.892e-05,0.0,0 STARLINK-3227,1 49765U 21115AT  24091.20264446  .00001892  00000-0  13691-3 0  9998,2 49765  53.2176  79.6528 0001501  95.3177 264.7987 15.08839820129833,6917.881,95.438,540.784,538.708,0.0
49765.0,STARLINK-3227,PAYLOAD,2024-03-31 06:27:11,15.08841845,0.0001474,53.2176,79.356,97.0711,263.0449,0.00016494,2.338e-05,0.0,0 STARLINK-3227,1 49765U 21115AT  24091.26888277  .00002338  00000-0  16494-3 0  9998,2 49765  53.2176  79.3560 0001474  97.0711 263.0449 15.08841845128731,6917.875,95.437,540.759,538.72,0.0
49765.0,STARLINK-3227,PAYLOAD,2024-03-31 22:21:02,15.08839916,0.0001648,53.2181,76.3827,95.8445,264.2735,0.00016558,2.348e-05,0.0,0 STARLINK-3227,1 49765U 21115AT  24091.93128419  .00002348  00000-0  16558-3 0  9999,2 49765  53.2181  76.3827 0001648  95.8445 264.2735 15.08839916128831,6917.881,95.438,540.886,538.606,0.0
49765.0,STARLINK-3227,PAYLOAD,2024-04-01 03:07:12,15.08826579,0.0001432,53.2184,75.4907,94.8452,265.2704,0.00032667,4.913e-05,0.0,0 STARLINK-3227,1 49765U 21115AT  24092.13001089  .00004913  00000-0  32667-3 0  9994,2 49765  53.2184  75.4907 0001432  94.8452 265.2704 15.08826579129975,6917.921,95.438,540.777,538.796,0.0
49765.0,STARLINK-3227,PAYLOAD,2024-04-01 07:53:21,15.08846715,0.0001631,53.219,74.5985,101.6287,258.4889,9.8474e-05,1.28e-05,0.0,0 STARLINK-3227,1 49765U 21115AT  24092.32872029  .00001280  00000-0  98474-4 0  9998,2 49765  53.2190  74.5985 0001631 101.6287 258.4889 15.08846715130000,6917.86,95.437,540.853,538.597,0.0
49765.0,STARLINK-3227,PAYLOAD,2024-04-02 02:57:59,15.08839344,0.0001648,53.2193,71.0285,87.0425,273.0756,5.6848e-05,6.17e-06,0.0,0 STARLINK-3227,1 49765U 21115AT  24093.12360630  .00000617  00000-0  56848-4 0  9999,2 49765  53.2193  71.0285 0001648  87.0425 273.0756 15.08839344130126,6917.882,95.438,540.887,538.607,0.0
49765.0,STARLINK-3227,PAYLOAD,2024-04-02 07:44:08,15.08845729,0.0001497,53.2186,70.135,83.8365,276.2797,1.2926e-05,-8.2e-07,0.0,0 STARLINK-3227,1 49765U 21115AT  24093.32232205 -.00000082  00000-0  12926-4 0  9993,2 49765  53.2186  70.1350 0001497  83.8365 276.2797 15.08845729129043,6917.863,95.437,540.763,538.692,0.0
49765.0,STARLINK-3227,PAYLOAD,2024-04-02 22:02:37,15.08839758,0.0001561,53.2182,67.4615,85.0942,275.0228,4.7141e-05,4.62e-06,0.0,0 STARLINK-3227,1 49765U 21115AT  24093.91848454  .00000462  00000-0  47141-4 0  9995,2 49765  53.2182  67.4615 0001561  85.0942 275.0228 15.08839758129130,6917.881,95.438,540.826,538.666,0.0
49765.0,STARLINK-3227,PAYLOAD,2024-04-03 07:34:55,15.08840983,0.0001509,53.218,65.6775,78.0164,282.0998,6.0119e-05,6.69e-06,0.0,0 STARLINK-3227,1 49765U 21115AT  24094.31592360  .00000669  00000-0  60119-4 0  9991,2 49765  53.2180  65.6775 0001509  78.0164 282.0998 15.08840983130300,6917.877,95.437,540.786,538.698,0.0
49765.0,STARLINK-3227,PAYLOAD,2024-04-03 15:31:51,15.08840344,0.0001347,53.2175,64.1882,97.5219,262.5927,-1.6953e-06,-3.15e-06,0.0,0 STARLINK-3227,1 49765U 21115AT  24094.64712389 -.00000315  00000-0 -16953-5 0  9990,2 49765  53.2175  64.1882 0001347  97.5219 262.5927 15.08840344129241,6917.879,95.438,540.676,538.812,0.0
49765.0,STARLINK-3227,PAYLOAD,2024-04-04 04:14:56,15.08828583,0.0001418,53.2173,61.8091,90.3546,269.7608,0.00019908,2.881e-05,0.0,0 STARLINK-3227,1 49765U 21115AT  24095.17704823  .00002881  00000-0  19908-3 0  9992,2 49765  53.2173  61.8091 0001418  90.3546 269.7608 15.08828583130437,6917.915,95.438,540.761,538.799,0.0
49765.0,STARLINK-3227,PAYLOAD,2024-04-04 07:25:42,15.08839536,0.0001444,53.2174,61.2144,90.1652,269.9506,4.2246e-05,3.84e-06,0.0,0 STARLINK-3227,1 49765U 21115AT  24095.30952410  .00000384  00000-0  42246-4 0  9992,2 49765  53.2174  61.2144 0001444  90.1652 269.9506 15.08839536130457,6917.882,95.438,540.746,538.748,0.0
49765.0,STARLINK-3227,PAYLOAD,2024-04-05 07:16:29,15.08844448,0.0001447,53.2179,56.7532,91.5901,268.5257,8.0887e-05,1e-05,0.0,0 STARLINK-3227,1 49765U 21115AT  24096.30311902  .00001000  00000-0  80887-4 0  9997,2 49765  53.2179  56.7532 0001447  91.5901 268.5257 15.08844448129495,6917.867,95.437,540.733,538.731,0.0
49765.0,STARLINK-3227,PAYLOAD,2024-04-06 03:56:30,15.08837932,0.0001272,53.2181,52.8879,87.7789,272.3349,3.5479e-05,2.77e-06,0.0,0 STARLINK-3227,1 49765U 21115AT  24097.16424439  .00000277  00000-0  35479-4 0  9994,2 49765  53.2181  52.8879 0001272  87.7789 272.3349 15.08837932130730,6917.887,95.438,540.632,538.872,0.0
49765.0,STARLINK-3227,PAYLOAD,2024-04-07 13:19:36,15.08848984,0.0001138,53.2182,46.644,87.5809,272.5313,-5.5897e-05,-1.178e-05,0.0,0 STARLINK-3227,1 49765U 21115AT  24098.55528026 -.00001178  00000-0 -55897-4 0  9994,2 49765  53.2182  46.6440 0001138  87.5809 272.5313 15.08848984129839,6917.853,95.437,540.505,538.931,0.0
49765.0,STARLINK-3227,PAYLOAD,2024-04-07 19:41:09,15.08836124,0.0001252,53.2191,45.4586,98.5392,261.5742,6.6493e-05,7.7e-06,0.0,0 STARLINK-3227,1 49765U 21115AT  24098.82024609  .00000770  00000-0  66493-4 0  9991,2 49765  53.2191  45.4586 0001252  98.5392 261.5742 15.08836124130988,6917.892,95.438,540.623,538.891,0.0
49765.0,STARLINK-3227,PAYLOAD,2024-04-08 13:10:24,15.08835352,0.0001228,53.2192,42.1856,91.5423,268.571,2.7303e-05,1.47e-06,0.0,0 STARLINK-3227,1 49765U 21115AT  24099.54889168  .00000147  00000-0  27303-4 0  9995,2 49765  53.2192  42.1856 0001228  91.5423 268.5710 15.08835352129986,6917.895,95.438,540.609,538.91,0.0
49765.0,STARLINK-3227,PAYLOAD,2024-04-09 00:18:05,15.08842651,0.00012,53.219,40.1038,99.8317,260.281,2.2393e-05,6.9e-07,0.0,0 STARLINK-3227,1 49765U 21115AT  24100.01256834  .00000069  00000-0  22393-4 0  9995,2 49765  53.2190  40.1038 0001200  99.8317 260.2810 15.08842651130057,6917.872,95.437,540.567,538.907,0.0
49765.0,STARLINK-3227,PAYLOAD,2024-04-09 05:04:15,15.08843369,0.0001769,53.2189,39.2119,127.3506,232.7647,9.1236e-05,1.164e-05,0.0,0 STARLINK-3227,1 49765U 21115AT  24100.21128506  .00001164  00000-0  91236-4 0  9990,2 49765  53.2189  39.2119 0001769 127.3506 232.7647 15.08843369131196,6917.87,95.437,540.959,538.511,0.0
49765.0,STARLINK-3227,PAYLOAD,2024-04-09 13:01:10,15.08843592,0.0001339,53.2191,37.7226,81.2049,278.9094,7.1276e-05,8.47e-06,0.0,0 STARLINK-3227,1 49765U 21115AT  24100.54248688  .00000847  00000-0  71276-4 0  9999,2 49765  53.2191  37.7226 0001339  81.2049 278.9094 15.08843592130133,6917.869,95.437,540.661,538.808,0.0
49765.0,STARLINK-3227,PAYLOAD,2024-04-10 04:55:00,15.08857419,0.0001182,53.2188,34.7503,85.3317,274.781,0.00023101,3.392e-05,0.0,0 STARLINK-3227,1 49765U 21115AT  24101.20487115  .00003392  00000-0  23101-3 0  9994,2 49765  53.2188  34.7503 0001182  85.3317 274.7810 15.08857419131340,6917.827,95.436,540.51,538.874,0.0
49765.0,STARLINK-3227,PAYLOAD,2024-04-10 12:51:57,15.08847685,0.0001171,53.2189,33.2642,93.0645,267.0481,0.00012746,1.742e-05,0.0,0 STARLINK-3227,1 49765U 21115AT  24101.53607822  .00001742  00000-0  12746-3 0  9999,2 49765  53.2189  33.2642 0001171  93.0645 267.0481 15.08847685131395,6917.857,95.437,540.532,538.912,0.0
49765.0,STARLINK-3227,PAYLOAD,2024-04-11 04:45:48,15.08845872,0.0001408,53.2197,30.2877,101.4819,258.6331,1.2965e-05,-8.2e-07,0.0,0 STARLINK-3227,1 49765U 21115AT  24102.19848116 -.00000082  00000-0  12965-4 0  9996,2 49765  53.2197  30.2877 0001408 101.4819 258.6331 15.08845872131498,6917.862,95.437,540.701,538.753,0.0
49765.0,STARLINK-3227,PAYLOAD,2024-04-11 12:42:44,15.08839571,0.0001215,53.2183,28.8018,107.8461,252.2663,-6.3761e-05,-1.302e-05,0.0,0 STARLINK-3227,1 49765U 21115AT  24102.52968612 -.00001302  00000-0 -63761-4 0  9994,2 49765  53.2183  28.8018 0001215 107.8461 252.2663 15.08839571131545,6917.882,95.438,540.587,538.906,0.0
49765.0,STARLINK-3227,PAYLOAD,2024-04-11 22:15:04,15.08836882,0.0001294,53.2199,27.0187,93.3219,266.7921,-9.1608e-05,-1.745e-05,0.0,0 STARLINK-3227,1 49765U 21115AT  24102.92713014 -.00001745  00000-0 -91608-4 0  9994,2 49765  53.2199  27.0187 0001294  93.3219 266.7921 15.08836882130499,6917.89,95.438,540.65,538.86,0.0
49765.0,STARLINK-3227,PAYLOAD,2024-04-12 04:36:36,15.08842943,0.0001332,53.2204,25.8292,93.4371,266.6773,-0.00014096,-2.531e-05,0.0,0 STARLINK-3227,1 49765U 21115AT  24103.19208826 -.00002531  00000-0 -14096-3 0  9993,2 49765  53.2204  25.8292 0001332  93.4371 266.6773 15.08842943130536,6917.871,95.437,540.658,538.815,0.0
49765.0,STARLINK-3227,PAYLOAD,2024-04-12 22:05:50,15.08835096,0.0001404,53.2195,22.5579,102.7186,257.3963,7.7822e-05,9.51e-06,0.0,0 STARLINK-3227,1 49765U 21115AT  24103.92072910  .00000951  00000-0  77822-4 0  9996,2 49765  53.2195  22.5579 0001404 102.7186 257.3963 15.08835096130646,6917.895,95.438,540.732,538.789,0.0
